dba_name,business_owner_name,naics_code,address_no,address_pd,address_road,address_sfx,address_city,address_zip,zip_6dig
KLEINFELDER CONSTRUCTION SERVICES,KLEINFELDER CONSTRUCTION SERVICES INC,54161,550,W,C,ST,SAN DIEGO,92101-3532,92101
KLEINFELDER INC,KLEINFELDER INC,541615,770,,01ST,AVE,SAN DIEGO,92101-6171,92101
PN SHUTTLE SERVICE,NICHOLAS C WATSON & PAUL M BAK-SKLENER,4855,,,,,SAN DIEGO,92176-1038,92176
DENTAL ARTICULATING PAPER CO,KLEIN STEVEN H,422,9285,,DOWDY,DR,SAN DIEGO,92126-6381,92126
COLORS INTERIOR DESIGN,CHIEN-HO SUN,54141,17303,,CARRANZA,DR,SAN DIEGO,92127-1326,92127
JANETTE L DUNHAM ,JANETTE L DUNHAM,62431,11653,,THISTLE HILL,PL,SAN DIEGO,92130-8678,92130
GDO SPORTS INC,GDO SPORTS INC,33992,4660,,LA JOLLA VILLAGE,DR,SAN DIEGO,92121,92121
DOWNTOWN ACE HARDWARE,STERLING HARDWARE GROUP,44413,675,,06TH,AVE,SAN DIEGO,92101,92101
EZ LABS LLC,EZ LABS LLC,54199,6195,,CORNERSTONE,CT,SAN DIEGO,92121-4728,92121
VALLEY SECURITY SHOP,MAIORIELLO ALBERT S,54199,28092,,1/2 N LAKE WOHLFORD,,VALLEY CENTER,92082,92082
IDS GROUP INC,IDS GROUP INC,54133,4445,,CAMINO DEL RIO SOUTH,,SAN DIEGO,92108-4108,92108
STARSHINE MARKET,ALTON NAMU INC,44531,4475,,CLAIREMONT MESA,BLVD,SAN DIEGO,92117-2055,92117
SCRUBBISHSD,ANTONIO FRANCISCO,562998,3020,,MARQUETTE,ST,SAN DIEGO,92106-1012,92106
AFFIRMED HOUSING GROUP INC,AFFIRMED HOUSING GROUP INC,541,13520,,EVENING CREEK,DR,SAN DIEGO,92128-8123,92128
DOMINGO CASILLAS,CASILLAS DOMINGO,56172,5858,,SCHUYLER,ST,SAN DIEGO,92139-1735,92139
VISIONARY CARE CONSULTANTS,TINA BUCHANAN,62199,4136,,CAMINO PAZ,,SPRING VALLEY,91977-1106,91977
GONZALO DOMINGUEZ,GONZALO DOMINGUEZ,452999,3500,,SPORTS ARENA,BLVD,SAN DIEGO,92110-4919,92110
EL SALVADOR PUPUSERIA Y RESTAURANTE,JAIME SANTOS,7221,3824,,UNIVERSITY,AVE,SAN DIEGO,92105-1324,92105
CHIYODA INTEGRE OF AMERICA INC,CHIYODA INTEGRE OF AMERICA INC,42,9335,,AIRWAY,RD,SAN DIEGO,92154-7930,92154
TCP GLOBAL CORPORATION,TRI CITY PAINT CORP,452,6695,,RASHA,ST,SAN DIEGO,92121-2240,92121
VAXIION THERAPEUTICS LLC,VAXIION THERAPEUTICS LLC,621999,11585,,SORRENTO VALLEY,RD,SAN DIEGO,92121-1310,92121
GHOST CAB,CHRIS L DE LA VEGA,48599,3070,,COMSTOCK,ST,SAN DIEGO,92111-5510,92111
NARCISCO TANTAY AUTO SERVICE,NARCISCO TANTAY,811111,3708,,JUST,ST,SAN DIEGO,92154-2415,92154
MG CONSTRUCTION,MARK A GARZA,81149,30735,,BLOOMFEST,ST,MURRIETA,92563-1180,92563
ZAR ESQ,ERIC D ZARD,54111,6711,,HYACINTH,CIR,CARLSBAD,92011-3320,92011
O'REILLY AUTO ENTERPRISES #2714,O' REILLY AUTO ENTERPRISES LLC,44131,,,,,SPRINGFIELD,65801-9167,65801
ABS AUTO AUCTIONS,THOMAS J HARMON,42111,5905,,EL CAJON,BLVD,SAN DIEGO,92115-3827,92115
JORDAN COASTAL SIGNING LLC,JORDAN COASTAL SIGNING LLC,54112,12560,,CARMEL CREEK,RD,SAN DIEGO,92130-2380,92130
STORAGE WEST,LAACO LTD,4931,431,W,7TH,ST,LOS ANGELES,90014,90014
W O W DETAILING,JAVIER ALVAREZ III,811193,1351,,MAX,AVE,CHULA VISTA,91911-4511,91911
PFEIFER CONSTRUCTION,ALAN ROSS PFEIFER,2349,4519,,AVOCADO,BLVD,LA MESA,91941-7131,91941
JAMES M BARB CONSTRUCTION CO,JAMES M BARB CONSTRUCTION CO,23599,10701,,RANCHITOS,RD,ALBUQUERQUE,87122-2516,87122
NEKTER JUICE BAR,JCPS JUICE CORPORATION,722213,834,,KLINE,ST,LA JOLLA,92037-4308,92037
RALLY'S HAMBURGERS,ONG'S RESTAURANT GROUP,722,1545,,PALM,AVE,SAN DIEGO,92154-1017,92154
SMARRCO INC,SMARRCO INC,541,1397,,CAMINITO HALAGO,,SAN DIEGO,92037-7165,92037
EXTRA SPACE  MANAGEMENT INC,EXTRA SPACE MANAGEMENT INC,53113,8192,,MIRAMAR,RD,SAN DIEGO,92126-4321,92126
BXPRESS INTERNATIONAL GROUP,BXPRESS INTERNATIONAL GROUP,421,9668,,HEINRICH HERTZ,DR,SAN DIEGO,92154-7919,92154
SDCCU RAPID REGISTRATION,SAN DIEGO COUNTY CREDIT UNION,81299,6545,,SEQUENCE,DR,SAN DIEGO,92121-4363,92121
COAST INVESTIGATION,WEBB MARK R,52421,10755,,SCRIPPS POWAY,PKWY,SAN DIEGO,92131-3924,92131
FILKEY & ASSOCIATES INC,FILKEY & ASSOCIATES INC,53121,10050,,SCRIPPS LAKE,DR,SAN DIEGO,92131,92131
ELEMATEC USA CORPORATION,ELEMATEC USA CORPORATION,42299,4909,,MURPHY CANYON,RD,SAN DIEGO,92123-4349,92123
DELTA GROUP ELECTRONICS INC,DELTA GROUP ELECTRONICS INC,3344,10180,,SCRIPPS RANCH,BLVD,SAN DIEGO,92131-1234,92131
BEST LIFE CHIROPRACTIC - DR GERALD PALMES PC,BEST LIFE CHIROPRACTIC - DR GERALD PALMES PC,62131,9909,,MIRA MESA,BLVD,SAN DIEGO,92131-1072,92131
ANASTASIA MYSINA,ANASTASIA MYSINA,54193,1455,,FRAZEE,RD,SAN DIEGO,92108-4350,92108
CELEBRATE EVERYTHING EVENTS,DEANNA ROWLAND,81299,3510,,TALBOT,ST,SAN DIEGO,92106,92106
ABLENDING INC,ABLENDING INC,5223,11571,E,RANCH GATE,RD,SCOTTSDALE,85255-8237,85255
BRANDON PLASCENCIA,BRANDON PLASCENCIA,4859,3980,,HATTON,ST,SAN DIEGO,92111-3408,92111
GOLDEN POPPY PRESCHOOL & INFANT CENTER,ANOOP SHARMA,62441,3422,,TRIPP,CT,SAN DIEGO,92121-1026,92121
KEARNY MESA HYUNDAI,SUNROAD KMI AUTO INC,44111,8265,,VICKERS,ST,SAN DIEGO,92111-2119,92111
CAGE & MILES  LLP,JAIME N TEUCHERT CAGE & SHANNON B MILES,54111,16644,W,BERNARDO CENTER,DR,SAN DIEGO,92128,92128
EVERHART CONSTRUCTION,EVERHART ANTHONY R,235,9986,,VALLE CABALLO,LN,EL CAJON,92021,92021
ANASA BILLINGSLY CONSULTING SERVICES LLC,ANASA BILLINGSLY CONSULTING SERVICES LLC,5416,4931,,DASSCO,CT,SAN DIEGO,92102-3717,92102
SD ROSS & COMPANY INC,SD ROSS & COMPANY INC,5619,2754,,CALHOUN,ST,SAN DIEGO,92110-2706,92110
MARBLE WORKS OF SAN DIEGO,MARBLE WORKS OF SAN DIEGO,327,3754,,MAIN,ST,SAN DIEGO,92113-3834,92113
LAZOS COMMUNICATIONS,THOMAS S LAZOS,2353,7828,,BLUE LAKE,DR,SAN DIEGO,92119-3017,92119
NORMAS TAX PREPARATION ACCOUNTING & NOTARY SERVICE,NORMA D THIELMAN,54121,7490,,GUTHRIE,WAY,SAN DIEGO,92114-4633,92114
SHERRYS' BRUSH ART & SUPPLIES,KENDRICK SHERRY,6116,3827,,MISSION,BLVD,SAN DIEGO,92109-7052,92109
HOLLY J BAUER,HOLLY J BAUER,611,2966,,DOVE,ST,SAN DIEGO,92103-5543,92103
BAKER PROPERTIES,BAKER LEE R,5312,1434,,ESSEX,ST,SAN DIEGO,92103,92103
BOWMAN'S TRAVEL,DELORIS B THOMPSON,56151,1770,,DAYTON,DR,LEMON GROVE,91945-4110,91945
VIVA LA FIESTA,ANA I DELGADO-ARREDONDO,45322,2545,,EL CAJON,BLVD,SAN DIEGO,92104-6154,92104
ROBERT D TONKS MD,TONKS ROBERT D,6211,8010,,FROST,ST,SAN DIEGO,92123-4204,92123
SPOT REAL ESTATE LLC,SPOT REAL ESTATE LLC,53121,13122,,ROUNDUP,AVE,SAN DIEGO,92129-2453,92129
CUSTOM YACHT WORKS,CAMERON SALIMI,81149,1220,,ROSECRANS,ST,SAN DIEGO,92106-2674,92106
WESTERN BAY SHEET METAL INC,WESTERN BAY SHEET METAL & MARINE INC,3314,1410,,HILL,ST,EL CAJON,92020-5749,92020
LEPANTO COMMUNICATIONS,JAMES M. LEPANTO,61171,1919,,DALE,ST,SAN DIEGO,92102-1113,92102
JON D RIGNEY A PROFESSIONAL CORP,JON D RIGNEY A PROFESSIONAL CORP,5411,2333,,CAMINO DEL RIO SOUTH,,SAN DIEGO,92108-3615,92108
AURORA BEHAVIORAL HEALTH,MONICA FEDEROFF,6232,11878,,AVENUE OF INDUSTRY,,SAN DIEGO,92128-3423,92128
HYSOCEAN INC,HYSOCEAN INC,5416,7150,,SHORELINE,DR,SAN DIEGO,92122-4914,92122
SIKANDER JAIN,JAIN SIKANDER,53131,10513,,BRAZO,WAY,SAN DIEGO,92127-3329,92127
SOUTHBAYBLINDS,ROBERTO MEDINA,454,3723,,SUNSET,LN,SAN YSIDRO,92173-3305,92173
MARKLEIN PLUMBING,CRAIG J MARKLEIN,23511,23126,,VISTA RAMONA,RD,RAMONA,92065-4064,92065
S & K INTERNATIONAL TRADING LLC,S & K INTERNATIONAL TRADING LLC,42169,17918,,VILLAMOURA,DR,POWAY,92064-1000,92064
BROKEN STONES LLC,BROKEN STONES LLC,53139,14678,,IBEX,CT,SAN DIEGO,92129-3361,92129
MELTDOWN PRODUCTIONS,MELTDOWN PRODUCTIONS LLC,54143,6161,,EL CAJON,BLVD,SAN DIEGO,92115-3922,92115
HEYLMAN & CO LLC,HEYLMAN & CO LLC,8129,4017,,CORONADO,AVE,SAN DIEGO,92107-3732,92107
DOUGLAS PIPELINE INC,DOUGLAS PIPELINE INC,23599,502,,CHANEY,ST,LAKE ELSINORE,92530-2768,92530
MARK'S AUTO GLASS SERVICE,MARKS AUTO GLASS INC,54199,1648,N,MAGNOLIA,AVE,EL CAJON,92020-1252,92020
PRESERVATIONS,EVES LINDA S,339999,1151,,BARCELONA,DR,SAN DIEGO,92107-4152,92107
BBA PARTNERS LLC,BBA PARTNERS LLC,53139,15,W,SOUTH TEMPLE,,SALT LAKE CITY,84101-1526,84101
BRIGHT AND EARLY OCCUPATIONAL THERAPY INC,BRIGHT AND EARLY OCCUPATIONAL THERAPY INC,62134,4146,,MONROE,AVE,SAN DIEGO,92116-4747,92116
KAIZEN BUILT INC,KAIZEN BUILT INC,23,6844,,HYDE PARK,DR,SAN DIEGO,92119-2230,92119
STEVE G KUSTER & SUSANNE LARSSONKUSTER,STEVE G KUSTER & SUSANNE LARSSONKUSTER,53121,5172,,GREAT MEADOW,DR,SAN DIEGO,92130-6959,92130
EL CUERVO TACO SHOP,BARAJAS RICCARDO/BARAJAS JOSE,7221,110,W,WASHINGTON,ST,SAN DIEGO,92103,92103
ANANDASCAPES LLC,ANANDASCAPES LLC,54149,3813,,RAY,ST,SAN DIEGO,92104-3622,92104
ZMK CONSTRUCTION INC,ZMK CONSTRUCTION INC,233,1835A,S,CENTRE CITY,PKWY,ESCONDIDO,92025-6525,92025
GWEN GORDON PUBLIC RELATIONS,GWEN GORDON,54182,12767,,TEXANA,ST,SAN DIEGO,92129-3616,92129
LKQ LAKENOR AUTO & TRUCK SALVAGE INC,LKQ LAKENOR AUTO & TRUCK SALVAGE INC,49221,7411,,GOEN,PL,SAN DIEGO,92120-1271,92120
STICHIC,YIMAX CLOTHING INC,44812,2707,,FRUITLAND,AVE,VERNON,90058,90058
MATTHEW  W  CABRAL AND JENNIFER QUINN,MATTHEW W CABRAL AND  JENNIFER QUINN,454112,11347,,RED CEDAR,LN,SAN DIEGO,92131-1927,92131
RUSSELL JOHN FILMS LLC,RUSSELL JOHN FILMS LLC,54192,7312,,BIRCHCREEK,RD,SAN DIEGO,92119-1622,92119
DEYNA LIBIRAN L AC,DEYNA LIBIRAN,621399,4420,,HOTEL CIRCLE,CT,SAN DIEGO,92108-3433,92108
THE AFTER PEAK,PAUL CHAMPY,454,2632,,VIOLET,ST,SAN DIEGO,92105-4535,92105
SEABEE BUILDING SERVICES INC,SEABEE BUILDING SERVICES INC,541,4955,,ARIVA,WAY,SAN DIEGO,92123-2192,92123
SCHEIB PAINT AND BODY OF SAN DIEGO,LIVOLSI CORPORATION,81112,4129,,SPORTS ARENA,BLVD,SAN DIEGO,92110-5130,92110
FIRST COMMAND FINANCIAL SERVICES INC,FIRST COMMAND FINANCIAL SERVICES INC,52421,2650,,CAMINO DEL RIO NORTH,,SAN DIEGO,92108-1631,92108
GIFTS FROM A GODDESS,CHASTAIN SARABIA,3399,606,,03RD,AVE,SAN DIEGO,92101-6838,92101
CHUAN-YING JENNY CHENG,CHUAN-YING CHENG,541213,4407,,MENSHA,PL,SAN DIEGO,92130-2435,92130
MR TOADS MESSENGER SERVICE,DENNIS J LOCKWOOD,49221,3411,,47TH,ST,SAN DIEGO,92105-3513,92105
HENKELS & MCCOY INC,HENKELS & MCCOY INC,23599,2840,,FICUS,ST,POMONA,91766-6501,91766
TEQUILA SUNRISE CREATIONS,RAYMOND J BUTLER,54192,3461,,ROLLSREACH,DR,SAN DIEGO,92111-4723,92111
KING TECHNOLOGIES INC,KING TECHNOLOGIES INC,541,3760,,SPORTS ARENA,BLVD,SAN DIEGO,92110-5156,92110
ROLLIN OLDIES RESTORATION,STEVE C WILSON,81299,10781,,VIA CIMBORIO,CIR,SAN DIEGO,92131-2651,92131
MARIO GHIO FISHING,MARIO GHIO FISHING,541,1505,,CLOVE,ST,SAN DIEGO,92106-2131,92106
LBY CAR DETAILING,YSUYA ARANGO,811193,1222,,KENALAN,DR,SAN DIEGO,92154-3720,92154
ABA ADAPTIVE SERVICES,TEDI R TEABOUT,62133,6494,,WEATHERS,PL,SAN DIEGO,92121-2938,92121
SCRIPPS VENTURES INC,SCRIPPS VENTURES INC,54199,7339,,CALLE COSTABAL,,SAN DIEGO,92121-2658,92121
LAW OFFICES OF DAVID W BRODY APC,LAW OFFICES OF DAVID W BRODY APC,5411,1350,,COLUMBIA,ST,SAN DIEGO,92101-3455,92101
KERN FAMILY RESTAURANTS LLC,KERN FAMILY RESTAURANTS LLC,454,811,,PROSPECT,ST,LA JOLLA,92037-4207,92037
PENGUIN PRODUCTIONS,MACLEAN-FOWLER RICK & MACLEAN-FOWLER JUDY,5121,8982,,STIMSON,CT,SAN DIEGO,92129,92129
PARK AVENUE CLEANERS,HUNG VIET TRAN,81232,12145,,ALTA CARMEL,CT,SAN DIEGO,92128-3891,92128
STRONGARM ENVIRONMENTAL FIELD SERVICES,CASEY CROSBY,562,740,,WILLIAMSON,AVE,FULLERTON,92832-2132,92832
MARTHA OJEDA GUTIERREZ,MARTHA OJEDA GUTIERREZ,45,3500,,SPORTS ARENA,BLVD,SAN DIEGO,92110-4919,92110
MAID IN A DAY,ALBINA ROMAN,56172,5069,,CHOLLAS,PKY,SAN DIEGO,92105-4809,92105
BRIERTON JONES & JONES LLP,BRIERTON JONES & JONES LLP,5411,1550,,HOTEL,CIR,SAN DIEGO,92108-2911,92108
MARLY WEXLER,WEXLER MARLY B,621399,4314,,CAMPUS,AVE,SAN DIEGO,92103-2407,92103
HONDRE C MORENO,HONDRE C MORENO,812197,5096,,GLEN,ST,LA MESA,91942-9563,91942
STYLE DAHLIA,ANDREA LYN KENNEDY,54149,177,,WALKER,WAY,VISTA,92083-5844,92083
BERNARDO WEST CHIROPRACTIC,HEE/OSLANCE,62131,16766,,BERNARDO CENTER,DR,SAN DIEGO,92128-2563,92128
GREEN RHINO INC,GREEN RHINO INC,42199,7920,,SILVERTON,AVE,SAN DIEGO,92126-6310,92126
DAMERJI DENTAL CORPORATION,GEORGE DAMERJI,6212,4620,,CONVOY,ST,SAN DIEGO,92111-2328,92111
SHOZEN & MANPO,JOOIL CHA & HYEKYONG YUN,72211,9906,,MIRA MESA,BLVD,SAN DIEGO,92131-1015,92131
LILAC CUSTOM SERVICES,KEVIN C THOMAS,5614,1802,,OAKSHIRE,CT,SAN DIEGO,92102-1321,92102
NANCY M SATUR MD INC,NANCY M SATUR MD INC,621111,5717,,PACIFIC CENTER,BLVD,SAN DIEGO,92121-4250,92121
YOLANDA'S CLEANING,MARIA Y PEREZ,56172,4166,,MONROE,AVE,SAN DIEGO,92116-4773,92116
LA JOLLA SPORT HORSES LLC,LA JOLLA SPORT HORSES LLC,112,725,,MUIRLANDS VISTA,WAY,LA JOLLA,92037-6202,92037
ABDIRISAK A MOHAMED,ABDIRISAK A MOHAMED,48531,2835,,WASHINGTON,ST,LEMON GROVE,91945-3006,91945
THE LAW OFFICE OF AARON GIRON,AARON R GIRON,54111,7710,,BALBOA,AVE,SAN DIEGO,92111-2254,92111
PREFERRED GOVERNMENT STAFFING INC,PREFERRED GOVERNMENT STAFFING INC,5613,4909,,MURPHY CANYON,RD,SAN DIEGO,92123-4301,92123
SALLY BEAUTY SUPPLY #1962,SALLY BEAUTY SUPPLY LLC,44612,662,,DENNERY,RD,SAN DIEGO,92154-8402,92154
HANGER PROSTHETICS & ORTHOTICS WEST INC,HANGER PROSTHETICS & ORTHOTICS WEST INC,6219,4150,,REGENTS PARK,ROW,LA JOLLA,92037-1417,92037
D G ELECTRIC,ALL ELECTRIC INC,54199,,,,,SAN DIEGO,92192-2792,92192
BARB HOLLES,BARB HOLLES,54121,6357,,RANCHO MISSION,RD,SAN DIEGO,92108-2010,92108
SERRATOS CLEANING SERVICES,ANDREA AND BROTHERS CORPORATION,5617,265,,QUINTARD,ST,CHULA VISTA,91911-4309,91911
WHITNEY PERKINS,WHITNEY PERKINS,61162,1702,,KETTNER,BLVD,SAN DIEGO,92101-2524,92101
LUCID PRODUCTIONS ,MARCO M EMTESALI,54143,8008,,GIRARD,AVE,LA JOLLA,92037-4161,92037
NICHOLAS D VANNORDHEIM ,NICHOLAS D VANNORDHEIM,54199,5635,,REGIS,AVE,SAN DIEGO,92120-4823,92120
BEACH BUMZZ LLC,BEACH BUMZZ LLC,72211,978,,GARNET,AVE,SAN DIEGO,92109-2728,92109
SKINDAMENTALS,DINA SARKISOVA,81219,,,,,SAN DIEGO,92196-0903,92196
TREJO LANDSCAPING SERVICES,JOSE ANTONIO TREJO,56173,2525,,CENTRAL,AVE,SPRING VALLEY,91977-3208,91977
EAST BAY CONSTRUCTION,EAST BAY CONSULTING,23599,2130,,MAIN,ST,HUNTINGTON BEACH,92648-6442,92648
SAN DIEGO VAN SERVICE,AMMON BAIN & ASSOCIATES LLC,33699,4138,,GALT,ST,SAN DIEGO,92117-1125,92117
CARBON PERFORMANCE SAILING,CARBON PERFORMANCE SAILING LLC,48321,302,,WAHINGTON,ST,SAN DIEGO,92103,92103
FOOT LOCKER #7314,FOOT LOCKER RETAIL INC,44821,4457,,CAMINO DE LA PLAZA,,SAN YSIDRO,92173-3004,92173
SUPERIOR KITCHEN & BATH INC,SUPERIOR KITCHEN & BATH INC,23599,1567,N,CUYAMACA,ST,EL CAJON,92020-1509,92020
DR DEMO DEMOLITION SERVICES,R MONTANEZ CONTRACTING INC,23599,285,,MACE,ST,CHULA VISTA,91911-5822,91911
RAMIN DARANDEH,RAMIN DARANDEH & ARMITA RASHIDISHARIFABAD,541,16507,,DOVE CANYON,RD,SAN DIEGO,92127-4304,92127
LETTY ALVAREZ ,LETTY ALVAREZ,5418,5865,,FRIARS,RD,SAN DIEGO,92110-6010,92110
PRECEPT WIRELESS CONSULTANTS LLC,PRECEPT WIRELESS CONSULTANTS LLC,514199,2014,,GRANADA,AVE,SAN DIEGO,92104-5520,92104
BARBIE'S BEADS,SOLLEY BARBARA M,421,6615,,LA JOLLA,BLVD,LA JOLLA,92037-6020,92037
MANILL ENTERPRISES INC,MANILL ENTERPRISES INC,56199,4207,,AVATI,DR,SAN DIEGO,92117-4408,92117
THE EHRMAN MARKETING GROUP,SHELLEY ANN EHRMAN,541613,13619,,WINSTANLEY,WAY,SAN DIEGO,92130-1412,92130
DENNIS L COSTELLO MD,COSTELLO DENNIS L,6211,9850,,GENESEE,AVE,LA JOLLA,92037-1212,92037
BLOSSOMHILL THERAPEUTICS INC,BLOSSOMHILL THERAPEUTICS INC,54171,3525,,JOHN HOPKINS,CT,SAN DIEGO,92121-1121,92121
VIGIMAT INSURANCE SERVICES,MARIAS MULTISERVICES CORP,52421,321,E,SAN YSIDRO,BLVD,SAN YSIDRO,92173-2758,92173
TDS PLACE,ICARO VALLVE & LIBIA GUEVARA,7221,9965,,BUSINESSPARK,AVE,SAN DIEGO,92131-1125,92131
COSTCO WHOLESALE 578,COSTCO WHOLESALE CORPORATION,45291,,,,,SEATTLE,98124-3405,98124
HOFFMAN CHRIOPRACTIC,HOFFMAN KEVIN L,62131,7670,,OPPORTUNITY,RD,SAN DIEGO,92111-2266,92111
SAN DIEGO ELECTRIC BIKE,DAVID L HACKBART,45111,7444,,GIRARD,AVE,LA JOLLA,92037-5142,92037
NIKE RETAIL SERVICES INC,NIKE RETAIL SERVICES INC,448,1,SW,BOWERMAN,DR,BEAVERTON,97005-0979,97005
GLEAM IN YOUR EYE LLC,GLEAM IN YOUR EYE LLC,454,3306,,MORAGA,PL,SAN DIEGO,92117-5314,92117
JOEL LAZAR PHD,JOEL DEAN LAZAR PHD,62133,3262,,HOLIDAY,CT,LA JOLLA,92037-1811,92037
PROFESSOR JOEY GRECO,JOSEPH J GRECO III,61171,3910,,INGRAHAM,ST,SAN DIEGO,92109-5906,92109
WELLSPRING ENDOCRINOLOGY,SANDEEP S CHAUDHARY MD A PROFESSION,621111,6480,,WEATHERS,PL,SAN DIEGO,92121-3911,92121
NEXTX,MARSHALL B CHAMBERS & MICHAEL DAVID,541615,8711,,WALKDEN,LN,SAN DIEGO,92119-2035,92119
PARSONS SECURE SOLUTIONS INC,PARSONS SECURE SOLUTIONS INC,56111,110,W,A,ST,SAN DIEGO,92101-3711,92101
THE PURPLE PEARLS,KARLA VELAZQUEZ,81299,3225,,WING,ST,SAN DIEGO,92110-4627,92110
RGP ADMINISTRATIVE SERVICES,ROSEANNE B BROOKS,54121,1850,,SUNSET,BLVD,SAN DIEGO,92103-1642,92103
DEMSKI FINANCIAL GROUP ,MARTHA J DEMSKI ,54161,7770,,REGENTS,RD,SAN DIEGO,92122-1937,92122
JACKSON MECHANICAL LLC,JACKSON MECHANICAL LLC,23511,2830,,SANDOVER,CT,BONITA,91902-2124,91902
LAW OFFICES OF THOMAS T LORD,LORD THOMAS T,5411,401,W,A,ST,SAN DIEGO,92101-7901,92101
CHRISTIANS HANDYMAN SERVICE,CHRISTIAN GIBSON,235,9921,,CARMEL MOUNTAIN,RD,SAN DIEGO,92129-2813,92129
ROBOTRANSPORT INC,ROBOTRANSPORT INC,42199,494,,VISTA SAN LUCAS,,SAN DIEGO,92154-5514,92154
VOLTA CHARGING LLC,VOLTA INDUSTRIES INC,48899,8650,,LAKE MURRAY,BLVD,SAN DIEGO,92119-2828,92119
THE PHYSICAL ENLIGHTENMENT LLC,THE PHYSICAL ENLIGHTENMENT LLC,611621,3344,,LUCINDA,ST,SAN DIEGO,92106-2932,92106
BKM OFFICEWORKS,BKM OFFICEWORKS LLC,42,4780,,EASTGATE,MALL,SAN DIEGO,92121-2063,92121
BEST OFFICE SERVICE LLC,BEST OFFICE SERVICE LLC,54199,2547,,SADDLEHORN,DR,CHULA VISTA,91914-4031,91914
KAMAI HOLDINGS,KAMAI HOLDINGS,54199,3639,,MIDWAY,DR,SAN DIEGO,92110-5254,92110
EME AUTOMOTIVE CONCEPTS,EDWIN  D SANCHEZ,811198,6046,,EDGEWATER,ST,SAN DIEGO,92139-3121,92139
CHIOU-SEN DORA CHEN,CHIOU-SEN CHEN,71151,2480,,DARLINGTON,ROW,LA JOLLA,92037-0926,92037
CENTER FOR AUTISM & RELATED DISORDERS INC,CENTER FOR AUTISM & RELATED DISORDERS INC,6213,21600,,OXNARD,ST,WOODLAND HILLS,91367-7807,91367
HAIRSTYLIST,GRASSI ROSEMARY D,812112,3809,,LELAND,ST,SAN DIEGO,92106-1017,92106
JESSICA LISTER,JESSICA LISTER,62133,2667,,CAMINO DEL RIO SOUTH,,SAN DIEGO,92108-3765,92108
BLM PRODUCTIONS,MATTHEWS BRENDA L,54161,10598,,OAKBEND,DR,SAN DIEGO,92131-2369,92131
KB ENTERPRISES LLC,KB ENTERPRISES LLC,541613,4488,,37TH,ST,SAN DIEGO,92116-4684,92116
THE CONTENTS SPECIALISTS,STRATEGIC KEY GROUP INC,48421,9755,,DISTRIBUTION,AVE,SAN DIEGO,92121-2300,92121
DAZE DIGITAL CREATIONS,DAISY A CAMPOS,454112,123,,ROOSEVELT,AVE,NATIONAL CITY,91950-2844,91950
SWEET GIRL BOUTIQUE/FABRIC HOUND,MYRINDA DIXON,45411,7958,,MISSION CENTER,CT,SAN DIEGO,92108-5411,92108
AMRIT SIMONE DESIGN,AMRIT C SHERGILL,45439,1109,,PACIFICA,PL,ENCINITAS,92024-1343,92024
MCCULLOUGH DESIGN DEVELOPMENT INC,MCCULLOUGH DESIGN DEVELOPMENT INC,23321,10531,,4S COMMONS,DR,SAN DIEGO,92127-3517,92127
JOHN R WILKINSON MD,JOHN R WILKINSON,6211,5555,,RESERVOIR,DR,SAN DIEGO,92120-5149,92120
EKOLOJIK INC,EKOLOJIK INC,54162,6422,,STANLEY,AVE,SAN DIEGO,92115-4147,92115
PADADAK CLAIREMONT MESA,PADADAK CORP,72211,9363,,CLAIREMONT MESA,BLVD,SAN DIEGO,92123-1241,92123
CASH ENTERPRISES A BUSINESS ENHANCER,STANLEY & NANCY CASH ,54161,4482,,VIA AMABLE,,SAN DIEGO,92122-1591,92122
FLOOR INSTALLERS INC,FLOOR INSTALLERS INC,2355,1170,,MORENA,BLVD,SAN DIEGO,92110-3833,92110
MARCH AND ASH MANAGEMENT COMPANY LLC,MARCH AND ASH MANAGEMENT COMPANY LLC,551,2835,,CAMINO DEL RIO SOUTH,,SAN DIEGO,92108-3825,92108
MODIS INC,MODIS INC,5419,9350,,WAXIE,WAY,SAN DIEGO,92123-1048,92123
RIGHTNOW TAX SOLUTIONS,ILIANA Z REYES,541213,4370,,PALM,AVE,SAN DIEGO,92154-1760,92154
IAN D LAWRENCE ,IAN D LAWRENCE ,45399,4896,,ALLIED,RD,SAN DIEGO,92120-2414,92120
RR HVAC INC,RR HVAC INC,23,1804,,GARNET,AVE,SAN DIEGO,92109-3352,92109
SYKTICH FINANCIAL LLC,SYKTICH FINANCIAL LLC,5239,12396,,WORLD TRADE,DR,SAN DIEGO,92128-3789,92128
RUTTI'S SALON,RUTTI RICK F,812112,9350,,CLAIREMONT MESA,BLVD,SAN DIEGO,92123-1221,92123
APPLIED DEMOGRAPHICS,JEFFREY TAYMAN,54169,2142,,DIAMOND,ST,SAN DIEGO,92109-3619,92109
AUDREY BOGORAD,AUDREY BOGORAD,81299,3312,,VANCOUVER,AVE,SAN DIEGO,92104-4839,92104
TA-CARBON,VICTOR M LEGASPI HERNANDEZ & ALFREDO LEGASPI HERNA,72233,9575,,GENESEE,AVE,SAN DIEGO,92121-2039,92121
HARDESTY DRYWALL INC,HARDESTY DRYWALL INC,23599,19451,,SPLIT ROCK,RD,RAMONA,92065-7406,92065
M S ROUSE CO INC THE,M S ROUSE CO INC THE,5617,6490,,MARINDUSTRY,DR,SAN DIEGO,92121-2563,92121
LUDWIG MASONRY,RODNEY J LUDWIG,23541,13631,,PUTNEY,RD,POWAY,92064-4027,92064
CALGON CARBON CORPORATION,CALGON CARBON CORPORATION,5419,400,,CALGON CARBON,DR,PITTSBURGH,15230-0717,15230
LEISURE SPA,CHEN GUIXIANG,812193,7878,,CLAIREMONT MESA,BLVD,SAN DIEGO,92111-1621,92111
VIVID SOFTWARE SOLUTIONS LLC,VIVID SOFTWARE SOLUTIONS LLC,5415,1330,,FIELDBROOK,ST,CHULA VISTA,91913-1802,91913
ONLINE AUTO GROUP INC,ONLINE AUTO GROUP INC,4413,5790,,MIRAMAR,RD,SAN DIEGO,92121-2561,92121
UNICORN JEWELRY,NASSERI FARHAD/ANVARI MINO,44831,16781,,BERNARDO CENTER,DR,SAN DIEGO,92128-2583,92128
STANDARD DRYWALL INC,STANDARD DRYWALL INC,23599,9902,,CHANNEL,RD,LAKESIDE,92040-3042,92040
XUEJUN YAN DMD APC,RUIQIANG ZHUANG & XUEJUN YAN,62121,17137,,MONTEREY RIDGE,CT,SAN DIEGO,92127-8852,92127
MINDFUL PSYCHOTHERAPY INC,MINDFUL PSYCHOTHERAPY INC,6241,6540,,LUSK,BLVD,SAN DIEGO,92121-2696,92121
ROSE CUSTOM SHAPES,ROBERT B DROBACK,453,4377,,TEMECULA,ST,SAN DIEGO,92107-1125,92107
OASIS RELAXATION SYSTEMS,DAVID C WASSERMAN,54161,5412,,GILBERT,DR,SAN DIEGO,92115-3625,92115
FINNCO PATIO & LANDSCAPE,CHRISTOPHER & LETIZIA SULLIVAN,56179,4430,,MOUNT BIGELOW,DR,SAN DIEGO,92111-2518,92111
ALROY DRILLING SERVICES INC,ALROY DRILLING SERVICES INC,23,5563,,ADOBE FALLS,RD,SAN DIEGO,92120-4466,92120
R & I AUTO GLASS,ZUBIATE INCORPORATED,81119,6516,,LOCKFORD,AVE,SAN DIEGO,92139-3820,92139
SHELTER ISLAND SIGN SHOP,JASON J HURST,54143,2330,,SHELTER ISLAND,DR,SAN DIEGO,92106-3128,92106
INNO TECH MANUFACTURING INC ,INNO TECH MANUFACTURING INC,333518,10109,,CARROLL CANYON,RD,SAN DIEGO,92131-1109,92131
MESSER LLC,MESSER LLC,32512,200,,SOMERSET CORPORATE,BLVD,BRIDGEWATER,08807-2862,08807
FLAT HAT SERVICES LLC,FLAT HAT SERVICES LLC,56172,10105,,TOLEDO,RD,SPRING VALLEY,91977-1731,91977
HELLEN MASSAGE,VI HUI XIAO,62135,4372,,CLAIREMONT,DR,SAN DIEGO,92117-5535,92117
COHN CONSULTING,HELEN S COHN,541512,3568,,ARIZONA,ST,SAN DIEGO,92104-4012,92104
E & J  MEDICAL SERVICES,E & J  MEDICAL SERVICES INC,561499,8555,,AERO,DR,SAN DIEGO,92123-1743,92123
MARCON ENGINEERING INC,MARCON ENGINEERING INC,23,876,N,BROADWAY,,ESCONDIDO,92025-1820,92025
JOHNSTON THORP,JOHNSTON THORP APC,54111,180,,BROADWAY,,SAN DIEGO,92101-5062,92101
AQUARIUM ART,WRIGHTSON SHANE E,54199,12985,,DEER CANYON,CT,SAN DIEGO,92131-4219,92131
MESA LIQUOR & WINE CO,KS ATTISHA INC,44531,4919,,CONVOY,ST,SAN DIEGO,92111-1601,92111
ADVANCED MAINTENANCE SYSTEMS INC,ADVANCED MAINTENANCE SYSTEMS,56172,9241,,HARNESS,ST,SPRING VALLEY,91977-4211,91977
BARRERA EXOTIC PAINTING,ALEJANDRINA ARAMBURO & FREDDIE BARRERA,56179,3052,,NATIONAL,AVE,SAN DIEGO,92113-2542,92113
BARNESWORKS LLC,BARNESWORKS LLC,45399,665,,31ST,ST,SAN DIEGO,92102-3212,92102
MASSAGE ENVY,SKY RIVER ENTERPRISES INC,812193,9450,,MIRA MESA,BLVD,SAN DIEGO,92126-4850,92126
LINDSEY R BUZARD & PASCAL G WEBER,LINDSEY R WEBER & PASCAL G WEBER,45439,7845,,WESTSIDE,DR,SAN DIEGO,92108-1251,92108
COOL GREY MATTER,JENNIFER THERIEAU,541,4626,,EDGEWARE,RD,SAN DIEGO,92116-4701,92116
BLACKBURN ESTATE JEWELERS ,BLACKBURN ESTATE JEWELERS INC,522298,249,S,HIGHWAY 101,,SOLANA BEACH,92075-1807,92075
CONTRACTING CONCEPTS INC,CONTRACTING CONCEPTS INC,233,4965,,71ST,ST,SAN DIEGO,92115-1809,92115
REDBOX AUTOMATED RETAIL LLC,REDBOX AUTOMATED RETAIL LLC,812951,191,W,SAN YSIDRO,BLVD,SAN YSIDRO,92173-2555,92173
DR YING LIU OD PC,DR YING LIU OD PC,62132,8831,,VILLA LA JOLLA,DR,LA JOLLA,92037-1949,92037
KAREN'S KRITTERS,KAREN B MONDAY,71151,10915,,PORTOBELO,DR,SAN DIEGO,92124-1182,92124
CHAU TRAN,CHAU TRAN,812114,9330,,MIRA MESA,BLVD,SAN DIEGO,92126-4822,92126
MULUGETA GOBEZIE,MULUGETA M GOBEZIE,485,4443,,KANSAS,ST,SAN DIEGO,92116-4204,92116
LIFE & LOVE BY GIA,GIANINA A JIMENEZ,71151,801,,A,ST,SAN DIEGO,92101-4754,92101
DAPPER & DAMNED,JENNIFER PHOMMACHAK,454112,7031,,WHEATLEY,ST,SAN DIEGO,92111-5613,92111
MVMNT STUDIO,ROBIN TAYLOR,611621,5702,,EL CAJON,BLVD,SAN DIEGO,92115-3737,92115
SAN DIEGO SPORTS MEDICINE & FAMILY HEALTH CNTR,SAN DIEGO SPORTS MEDICINE & FAMILY HEALTH CTR A ME,621111,6699,,ALVARADO,RD,SAN DIEGO,92120-5238,92120
POWER CAB,MUKEMIL S HASSAN,48531,4051,,39TH,ST,SAN DIEGO,92105-1338,92105
SAN DIEGO PAINTBALL PARK LLC,SAN DIEGO PAINTBALL PARK LLC,4539,12971,,CLAYMONT,CT,SAN DIEGO,92130-2431,92130
ASSOCIATES IN FAMILY MEDICINE,MAHSHID MICHELLE HAMIDI MD INC,62111,5222,,BALBOA,AVE,SAN DIEGO,92117-6952,92117
WESTERN FINANCIAL CORP,WESTERN FINANCIAL CORP,52393,600,,B,ST,SAN DIEGO,92101-4508,92101
ARCHITECTURAL SALVAGE,ELIZABETH SCALICE,4539,2401,,KETTNER,BLVD,SAN DIEGO,92101-1215,92101
SAN DIEGO LIQUIDATION AND ESTATE SERVICES,YAHNN KRAVEICHVILI,45411,5290,,MIDDLETON,RD,SAN DIEGO,92109-1522,92109
WINDSAN ENERGY SOLUTION,JOE MOORE CONSTRUCTION INC,23321,3612,,VALLEY,ST,CARLSBAD,92008-2639,92008
BRADY HOLLY,BRADY HOLLY,56179,2253,,CAMINITO PAJARITO,,SAN DIEGO,92107-1928,92107
LINCOLN FINANCIAL ADVISORS CORPORATION,THE LINCOLN NATIONAL LIFE INSURANCE COMPANY,52312,100,N,GREENE,ST,GREENSBORO,27401-2547,27401
MIKES CUSTOM FLOORING INC,MIKES CUSTOM FLOORING INC,23552,1351,W,PARK,AVE,REDLANDS,92373-8181,92373
DE ANDA'S ORIGINAL ART,CARLOS ALBERT DE ANDA,453,11930,,BLACK MOUNTAIN,RD,SAN DIEGO,92129-4909,92129
NAJIB PAGHMANI RENTALS,NAJIBULLAH PAGHMANI,72131,8761,,BLUE LAKE,DR,SAN DIEGO,92119-3512,92119
SOL TRANSPORTATION INC,SOL TRANSPORTATION INC,485999,2525,,RAMONA,DR,VISTA,92084-1632,92084
PROPHETIC,PROPHETIC,8129,2159,,AVENIDA DE LA PLAYA,,LA JOLLA,92037-3240,92037
MIXR LLC,MIXR LLC,4224,1240,,INDIA,ST,SAN DIEGO,92101-8532,92101
EPICSON PRINTING & ADVERTISING / CANDROY,EPICSON INC,3231,8250,,CAMINO SANTA FE,,SAN DIEGO,92121-3254,92121
LANDSCAPE ARMIENTAS,APOLINAR ARMIENTA-CHAVEZ,56173,3641,,CENTRAL,AVE,SAN DIEGO,92105-3318,92105
CYKIC SOFTWARE INC,CYKIC SOFTWARE INC,561499,3739,,29TH,ST,SAN DIEGO,92104-3604,92104
JOANNE MITCHELL ACCOUNTING,JOANNE RENEE MITCHELL,541615,4444,,GREENE,ST,SAN DIEGO,92107-1446,92107
BERNICE'S HAIR SALON,RICCI BERNICE L,812112,3949,,CLAIREMONT,DR,SAN DIEGO,92117-5558,92117
MICHAELS STORES INC #1360,MICHAELS STORES INC,4539,8136,,MIRA MESA,BLVD,SAN DIEGO,92126,92126
PACIFIC CORNERSTONE ARCHITECTS INC,PACIFIC CORNERSTONE ARCHITECTS INC,5413,11750,,SORRENTO VALLEY,RD,SAN DIEGO,92121-1019,92121
VIDA CAFE,MARIA A GALVAN,44529,799,E,SAN YSIDRO,BLVD,SAN YSIDRO,92173-3114,92173
POWERHAUS LLC,POWERHAUS LLC,722211,1727,,DIAMOND,ST,SAN DIEGO,92109-3304,92109
LIFE CYCLE ENGINEERING INC,LIFE CYCLE ENGINEERING INC,5413,4360,,CORPORATE,RD,N CHARLESTON,29405,29405
DYNAMIC SYSTEMS ENGINEERING,BRENNAN C EVELAND & JILL E EVELAND,54133,9889,,CAMINITO MARLOCK,,SAN DIEGO,92131-2014,92131
ARROYO DEL MAR,ARROYO DEL MAR INC,11521,7070,,BLACK MOUNTAIN,RD,SAN DIEGO,92130-1609,92130
PETERSON HILL MARKETING,PETERSON HILL MARKETING INC,54161,1828,,SIENNA CANYON,DR,ENCINITAS,92024,92024
TRI THUONG NGUYEN MD APC,TRI THUONG NGUYEN MD APC,6211,4655,,RUFFNER,ST,SAN DIEGO,92111-2275,92111
RANCHO BERNARDO POOL AND SPA/ RBPS,KOKJOHN THOMAS R & TAMMY S KOKJOHN,54199,11956,,BERNARDO PLAZA,DR,SAN DIEGO,92128-2538,92128
JOHN STUBBS & DENISE DABROWSKI,JOHN STUBBS & DENISE DABROWSKI,71151,1938,,33RD,ST,SAN DIEGO,92102-1222,92102
SNIPS & COLOUR,JOANNE B CORTEZ,81211,1425,,FRAZEE,RD,SAN DIEGO,92108-4347,92108
CHRISTIAN BRUENING FOUNDATION,CHRISTINA MARIA BRUENING CASILLAS,8129,3725,,30TH,ST,SAN DIEGO,92104-3607,92104
ALPINE FENCE INC,ALPINE FENCE INC,23599,2038,,ALPINE,BLVD,ALPINE,91901-2111,91901
BLAST RADIUS COFFEE,PHILLIP ARCIDIACONO,453,4090,,MORENA,BLVD,SAN DIEGO,92117-5242,92117
TIM VALINE CONSTRUCTION INC,TIM VALINE CONSTRUCTION INC,541615,4116,,CASITA,WAY,SAN DIEGO,92115-6838,92115
SWEETS BY NANA,ELIZABETH GERSTEN,72234,2112,,CAMINITO CIRCULO SUR,,LA JOLLA,92037-7215,92037
AMPUTECH INC,AMPUTECH INC,33911,142,,BROADWAY,,SAN DIEGO,92101,92101
GUDINO ELECTRIC,GUDINO RAUL,2353,824,,SANTA ISABEL,DR,SAN DIEGO,92114-6315,92114
JEFFEREY RUCKER ,JEFFEREY RUCKER ,541,5310,,ROSWELL,ST,SAN DIEGO,92114-1707,92114
ASPIRING FAMILIES A PROFESSIONAL CORPORATION,ASPIRING FAMILIES A PROFESSIONAL PSYCHOLOGY CORPOR,621112,12625,,HIGH BLUFF,DR,SAN DIEGO,92130-2053,92130
NILE MIDDLE RIVER LLC,NILE MIDDLE RIVER LLC,454112,1133,,PRIVET,ST,SAN MARCOS,92069-3185,92069
NEROLI WELLNESS STUDIO,DAEJ INC,81211,11800,,CARMEL CREEK,RD,SAN DIEGO,92130-2823,92130
REGUS MANAGEMENT GROUP LLC,REGUS MANAGEMENT GROUP LLC,45,251,,LITTLE FALLS,DR,WILMINGTON,19808-1674,19808
T M REMODELING INC,T M REMODELING INC,233,3065,,BEYER,BLVD,SAN DIEGO,92154-3499,92154
BLAIR FERGUSON JR ,BLAIR FERGUSON JR,541519,3520,,BENTLEY,DR,SPRING VALLEY,91977-2001,91977
RESTAURANT DEPOT,RESTAURANT DEPOT,42249,7466,,CARROLL,RD,SAN DIEGO,92121-2356,92121
IMPACT SELF-DEFENSE SAN DIEGO,IMPACT SELF-DEFENSE SAN DIEGO LLC,611623,1818,,ROBINSON,AVE,SAN DIEGO,92103-4606,92103
PURE SALON & DAY SPA,CHRISTINE MC CLANAHAN,812115,2685,,POINSETTIA,DR,SAN DIEGO,92106-1121,92106
THOMAS B GORRILL ATTORNEY AT LAW,GORRILL THOMAS B,5411,401,W,A,ST,SAN DIEGO,92101-7937,92101
SAN DIEGO PSYCHOANALYTIC SOCIETY AND INSTITUTE,SAN DIEGO PSYCHOANALYTIC SOCIETY AND INSTI,8134,4455,,MORENA,BLVD,SAN DIEGO,92117-4329,92117
SUPERIOR - AIR INC,SUPERIOR - AIR INC,23511,8860,,KENAMAR,DR,SAN DIEGO,92121-2451,92121
GOLDMAN MAGDALIN & KRIKES LLP,GOLDMAN/MAGDALIN/KRIKES,5411,1961,N,C,ST,OXNARD,93031-4022,93031
RM ENGINEERING CONSULTING,RONIT MUKMERJEE,61142,3282,,VIA ALICANTE,,LA JOLLA,92037-2746,92037
WATER SAFETY SPECIALIST,JAMES LOCKWOOD & KAIMI LOCKWOOD,81219,1844,,DENVER,ST,SAN DIEGO,92110-3536,92110
ALBRITTEN ASSOCIATED ENTERPRISES,ALBRITTEN JESSE L,5412,2681,,MARKET,ST,SAN DIEGO,92102-3011,92102
JULES STEWART GRAPHIC DESIGN,JULIANNE M STEWART,54143,2948,,KALMIA,ST,SAN DIEGO,92104-5415,92104
D A INGRUM MD INC,D A INGRUM MD INC,541615,10755,,SCRIPPS POWAY,PKWY,SAN DIEGO,92131-3924,92131
NOTORIOUSLY GIFTED STUDIO,NOTORIOUSLY GIFTED STUDIO LLC,812111,4456,,VANDEVER,AVE,SAN DIEGO,92120-3325,92120
SEQXCEL INC,SEQXCEL INC,541,6393,,NANCY RIDGE,DR,SAN DIEGO,92121-2235,92121
KENSINGTON YARDZ LLC,KENSINGTON YARDZ LLC,56173,4910,,WESTMINSTER,TER,SAN DIEGO,92116-2317,92116
TISSOTOM,PHUC TU,812112,1923,,MORENA,BLVD,SAN DIEGO,92110-3555,92110
PARTS TECH,GUILLERMO HOMERO MUNOZ ESQUER,453,7310,,POGO,ROW,SAN DIEGO,92154-5517,92154
DMA CONSTRUCTION,MANUEL A DIONISIO,2332,2429,,LAKE FOREST,ST,ESCONDIDO,92026-4062,92026
CC & DJ VENTURES,CC & DJ VENTURES,5239,13548,,BIDWELL,CT,SAN DIEGO,92129-4442,92129
KOEHLER KRAFT COMPANY INC,KOEHLER KRAFT COMPANY INC,4539,2302,,SHELTER ISLAND,DR,SAN DIEGO,92106-3110,92106
HOTZ COSMETICS,CHRISTIAN HERNANDEZ,454,3905,,TEAK,ST,SAN DIEGO,92113-2868,92113
HAROLD WALTER GROENEBOER,HAROLD W GROENEBOER,71151,5472,,GILBERT,DR,SAN DIEGO,92115-3625,92115
EITAN ZUR MARINE,EITAN D ZUR,48721,,,,,SAN DIEGO,92137-1715,92137
BMB GLOBAL LLC,BMB GLOBAL LLC,54161,17125,,RUSSET,ST,SAN DIEGO,92127-2190,92127
BROOK M FOSTER DC,BROOK M FOSTER DC,62131,4380,,FELTON,ST,SAN DIEGO,92104-1421,92104
FLOORING LIQUDATORS INC,FLOORING LIQUDATORS INC,23552,1581,,CUMMINGS ,DR,MODESTO,95358,95358
WEST COAST ORDNANCE WORKS,JOEL MARSHALL STILWAGEN,81299,4319,,TWAIN,AVE,SAN DIEGO,92120-3403,92120
ORANGETHEORY FITNESS  LA JOLLA,AHERN OTF 1 LLC,71394,7734,,GIRARD,AVE,LA JOLLA,92037-4446,92037
U & M CLASSIC PRODUCTS INC,U & M CLASSIC PRODUCTS INC,44612,2623,,HARTFORD,ST,SAN DIEGO,92110-2315,92110
T AND T BEAUTY SALON,LAM PHUNG H,812112,4309,,EUCLID,AVE,SAN DIEGO,92115-4942,92115
CIARA CUSSEAUX IMAGERY,CIARA P CUSSEAUX RHODES,54192,315,,LAUREL,ST,VALLEJO,94591-7313,94591
HOWARD ASSOCIATES INC,HOWARD ASSOCIATES INC,5413,2442,,02ND,AVE,SAN DIEGO,92101-1508,92101
ALAN'S BARBER SHOP,MARIA S UPSON,812114,3018,,IMPERIAL,AVE,SAN DIEGO,92102-4128,92102
SIDECAR VENTURE,WILLIAM E PHILLIPS IV & MICHELLE L PHILLIPS,532111,750,,BEECH,ST,SAN DIEGO,92101-3254,92101
ASPEN RISK MANAGEMENT GROUP ,ASPEN RISK MANAGEMENT GROUP INC,541618,2727,,CAMINO DEL RIO SOUTH,,SAN DIEGO,92108-3709,92108
SAN DIEGO TECH BUILDING SOLUTIONS INC,SAN DIEGO TECH BUILDING SOLUTIONS INC,233,2514,,JAMACHA,RD,EL CAJON,92019-6313,92019
3515 LTD,3515 LTD,541,4895,,SAVANNAH,ST,SAN DIEGO,92110-3824,92110
ADVANCE AMERICA #1000 CASH ADVANCE CENTERS,ADVANCE AMERICA CASH ADVANCE CENTERS OF CA LLC,5419,,,,,SPARTANBURG,29304-3058,29304
JOHNNY FITZMAURICE JR INSURANCE AGENCY INC,JOHNNY FITZMAURICE JR INSURANCE AGENCY INC,52421,12396,,WORLD TRADE,DR,SAN DIEGO,92128-3788,92128
LIGHTNING FAST ELECTRIC INC,LIGHTNING FAST ELECTRIC INC,23531,6161,,EL CAJON,BLVD,SAN DIEGO,92115-3922,92115
DAYLITE WINDOWCLEANING,ERNESTO HUIZARD,56172,416,W,SAN YSIDRO,BLVD,SAN YSIDRO,92173-2443,92173
HERTZ CAR SALES /HERTZ LOCAL EDITION,HERTZ CORPORATION,53211,,,,,MONSEY,10952-8505,10952
APC PHYSICAL THERAPY AND MORE INC,APC PHYSICAL THERAPY AND MORE INC,62419,4579,,MAYAPAN,DR,LA MESA,91941-7145,91941
ROYALTY CARE PLACEMENT,DMITRIY BGATOV,62412,9038,,SUNDANCE,CT,SAN DIEGO,92129-2504,92129
BLACKWATER TATTOO STUDIO,DARREN M KELLERMAN,812196,2045,,N,AVE,NATIONAL CITY,91950-5925,91950
CALIFORNIA BACKFLOW SPECIALISTS,LUCAS HUGGINS,56179,8795,,HILLERY,DR,SAN DIEGO,92126-2860,92126
PHO CALI,PHO CALI LLC,7222,764,,DENNERY ROAD,,SAN DIEGO,92154,92154
CHACHA'S HOUSEKEEPING,ANGELITA MEDINA NAJERA,8129,3575,,BOSTON,AVE,SAN DIEGO,92113-3137,92113
GOTHAM PILATES / 212 PILATES,LAURA ANN SEPULVEDA,8129,7760,,FAY,AVE,LA JOLLA,92037-4322,92037
1430 UNION STREET LLC,1430 UNION STREET LLC,541,575,,ALBION,ST,SAN DIEGO,92106-3209,92106
LOTUS AND LANIER,JONATHAN LANIER,44815,1985,,LIEDER,DR,SAN DIEGO,92154-2934,92154
CHAPLAIN FUND,CLAUDE M STONIER,454,5140,,PARK RIM,DR,SAN DIEGO,92117-1044,92117
CANCUN,ALENA & LUBOMIR PODOLSKY,7222,3225,,SPORTS ARENA,BLVD,SAN DIEGO,92110-4548,92110
UNIVERSAL CONFERENCE MANAGEMENT SYSTEMS & SUPPORT,KAVEH D ARBTAN,54199,14215,,VIA MICHELANGELO,,SAN DIEGO,92129-4200,92129
GHOSTINMOTORZ,DAVID A GUSTAVE,8111,5451,,ROSWELL,ST,SAN DIEGO,92114-1727,92114
MILES YARD AND GARDEN LLC,MILES YARD AND GARDEN LLC,56173,4733,,MUIR,AVE,SAN DIEGO,92107-2217,92107
LIVING ROOM CAFE OF LA JOLLA,SAN DIEGO LIVING ROOM INC,722211,1010,,PROSPECT,ST,LA JOLLA,92037-4109,92037
THOMAS ENTERPRISES,THOMAS KEITH A,45439,8648,,VALENCIA,ST,SPRING VALLEY,91977-2543,91977
FAMILY SUPPORT CENTER OF SAN DIEGO,IRWIN ROSENFARB,62133,10455,,POMERADO,RD,SAN DIEGO,92131-1717,92131
ELITE CONSULTATIONS INC,ELITE CONSULTATIONS INC,541615,1507,,ELMWOOD,CT,CHULA VISTA,91915-2163,91915
T-MOBILE FINANCIAL LLC,T-MOBILE FINANCIAL LLC,42169,12920,SE,38TH,ST,BELLEVUE,98006-1350,98006
FRED LOYA INSURANCE AGENCY INC,FRED LOYA INSURANCE AGENCY INC,52421,2850,,NATIONAL,AVE,SAN DIEGO,92113-2439,92113
CHRISTOPHER NAU,NAU CHRISTOPHER,2353,8368,,VIA SONOMA,,LA JOLLA,92037-2832,92037
MEAGAN BARNABA,MEAGAN BARNABA,81299,1425,,GARNET,AVE,SAN DIEGO,92109-3015,92109
GENOVA BIOPHARMACEUTICALS INC,GENOVA BIOPHARMACEUTICALS INC,54171,5850,,OBERLIN,DR,SAN DIEGO,92121-4711,92121
BALBOA NEPHROLOGY MEDICAL GROUP INC,BALBOA NEPHROLOGY MEDICAL GROUP INC,62111,4060,,04TH,AVE,SAN DIEGO,92103-2120,92103
TRACES OF DESIGN,TRACI A WOODEN,454,6161,,EL CAJON,BLVD,SAN DIEGO,92115-3922,92115
APHRODITE'S CLOSET,PAMELA A MCPHEE & ROCKNE N PARKER,4481,3739,,06TH,AVE,SAN DIEGO,92103-4389,92103
SIBYL DESIGNS,SIBYL & AL RUBOTTOM,54143,5352,,VIA CARANCHO,,SAN DIEGO,92111-4521,92111
KIM DELA CRUZ,KIM DELA CRUZ,62139,11344,,IRONWOOD,RD,SAN DIEGO,92131-1917,92131
YENOR & ASSOCIATES,ROBERT W YENOR CPA APC,541211,3914,,MURPHY CANYON,RD,SAN DIEGO,92123-4491,92123
SUGAR BEAR ENTERPRISES,JOANN E STABILE,72232,485,,ELM,AVE,CHULA VISTA,91910-4809,91910
BRENDA GRIJALVA DC,BRENDA GRIJALVA DC,62131,8950,,VILLA LA JOLLA,DR,LA JOLLA,92037-1721,92037
ABINAV CHANDRA,ABINAV CHANDRA,532,,,,,SAN DIEGO,92169-0508,92169
ACE PARKING MANAGEMENT INC #109,ACE PARKING MANAGEMENT INC,81293,1200,,PROSPECT,ST,LA JOLLA,92037-3608,92037
THE CORNER WASH,LAUNDRY MAN INC,81231,,,,,SAN DIEGO,92176-6434,92176
SAN DIEGO SEXUAL MEDICINE APC,SAN DIEGO SEXUAL MEDICINE APC,62111,5555,,RESERVOIR,DR,SAN DIEGO,92120-5194,92120
GEORGE R JOHNSTON ,GEORGE R JOHNSTON ,541,6888,,GOLFCREST,DR,SAN DIEGO,92119-2402,92119
AQUA CLEAN EXPRESS CAR WASH,AQUA EXPRESS INC,811192,6675,,EL CAJON,BLVD,SAN DIEGO,92115-2802,92115
MARIA C BAUTISTA MD,MARIA C BAUTISTA MD INC,6211,11878,,AVENUE OF INDUSTRY,,SAN DIEGO,92128-3423,92128
JANET RODRIGUEZ MFT,JANET R RODRIGUEZ,62419,9820,,WILLOW CREEK,RD,SAN DIEGO,92131-1116,92131
THINGS WORTH WRAPPING,GINA D MANZELLA,454,2172,,FINCH,LN,SAN DIEGO,92123-3711,92123
GREEN AND FRESH CONSULTANTS,GREEN AND FRESH CONSULTANTS,45439,3960,W,POINT LOMA,AVE,SAN DIEGO,92106,92106
PLUMBING & AIR STAR HEATING,HIRE PRO MAN INC,811,1817,,MORENA,BLVD,SAN DIEGO,92110-3651,92110
THAI LAO MARKET AND LAUNDRY,JARUCHA R SUTTER,4451,4704,,MARKET,ST,SAN DIEGO,92102-4716,92102
TROCHE REAL ESTATE SERVICE,TROCHE REAL ESTATE SALES AND INVESTMENT,541,1010,,PEARL,ST,LA JOLLA,92037-5164,92037
THE ELECTRIC CO,CRS GROUP INC,23531,3136,,KURTZ,ST,SAN DIEGO,92110-4425,92110
SAN YSIDRO HEALTH MOUNTAIN HEALTH FAMILY MEDICINE,CENTRO DE SALUD DE LA COMUNIDAD DE SAN YSIDRO INC,81356,1388,,BUCKMAN SPRINGS,RD,CAMPO,91906-2028,91906
TRACY'S NAIL,TRACY G NGUYEN,8121,4484,,52ND,ST,SAN DIEGO,92115-4713,92115
APPLIANCE SCIENCE,TODD MICHAEL JOHNSON,81149,1643,,HORNBLEND,ST,SAN DIEGO,92109-4432,92109
MADE LUMBER SUPPLY,BRIAN J GRASELA,42131,5334,,BANKS,ST,SAN DIEGO,92110-4008,92110
RUTH WISE,RUTH I WISE,812115,4288,,CASS,ST,SAN DIEGO,92109-4006,92109
MORTGAGEWRITE INC,MORTGAGEWRITE INC,52231,2292,,FARADAY,AVE,CARLSBAD,92008-7238,92008
CU REVEST LLC,CU REVEST LLC,5239,404,,CAMINO DEL RIO SOUTH,,SAN DIEGO,92108-3588,92108
BUF TECHNOLOGY,BREDON BRUCE/TRACEY,54161,12335,,WORLD TRADE,DR,SAN DIEGO,92128,92128
SENIOR VILLAGE SAKURA,SAN DIEGO HANA HOMES INC,81351,2815,,04TH,AVE,SAN DIEGO,92103-6207,92103
PARK BLVD LIQUOR & DELI,ALVIN HABIB & HEATHER HABIB,44512,4504,,PARK,BLVD,SAN DIEGO,92116-2643,92116
L J AUTO,BEN KANDI,44112,4455,,FEDERAL,BLVD,SAN DIEGO,92102-2538,92102
HEATHER C STEINMAN,HEATHER C STEINMAN,71151,475,,MELBOURNE GLEN,,ESCONDIDO,92026-8564,92026
RICK WALTMAN LAW APC,RICK WALTMAN LAW APC,54111,501,W,BROADWAY,,SAN DIEGO,92101-3546,92101
JILL HAILSTONES PRECHEUR,JILL HAILSTONES PRECHEUR,53111,2816,,DALE,ST,SAN DIEGO,92104-4926,92104
ART WORLDS UNITED,SPENCER WILLIS,45392,4851,,GARDENA,AVE,SAN DIEGO,92110-1332,92110
HEIKESPA,HEIKE S RENTEL,812198,6828,,ELAINE,WAY,SAN DIEGO,92120-3933,92120
RED O LA JOLLA LLC,RED O LA JOLLA LLC,72211,13,,CORPORATE PLAZA,DR,NEWPORT BEACH,92660-7919,92660
MARC SHULAR A PROFESSIONAL CORPORATION,MARC SHULAR A PROFESSIONAL CORPORATION,54111,14282,,DANIELSON,ST,POWAY,92064-8819,92064
EK HEALTH SERVICES INC,EK HEALTH SERVICES INC,81299,992,S,DE ANZA,BLVD,SAN JOSE,95129-2777,95129
THE COTTAGE,COTTAGE LA JOLLA LLC,7221,7702,,FAY,AVE,LA JOLLA,92037-4309,92037
DURAN FREIGHT CORPORATION,DURAN FREIGHT CORPORATION,48423,7295,,SIEMPRE VIVA,RD,SAN DIEGO,92154-7412,92154
SALON ON 30TH,ECLATANT LLC,812112,2225,,30TH,ST,SAN DIEGO,92104-5472,92104
SALON ON 30TH,GHOST ALLIANCE INC,812112,3866,,MURRAY HILL,RD,LA MESA,91941-7622,91941
MARANATHA BOOKSTORE,MARANATHA CHAPEL INC,8135,10752,,COASTWOOD,RD,SAN DIEGO,92127-2400,92127
MARANATHA CAB,FRANCISCO J BARRAZA,48531,173,W,SEAWARD,AVE,SAN YSIDRO,92173-2547,92173
MARANATHA TOWING & TRANSPORTATION,MARANATHA TOWING & TRANSPORTATION,4853,15870,,CAMINO SAN BERNARDO,,SAN DIEGO,92127-2371,92127
